start=new Date('2022-07-09T00:00:00.000Z').valueOf();
sats=[{"ARG_OF_PERICENTER":"62.5612","LAUNCH_DATE":"2021-03-24","COUNTRY_CODE":"US","TIME_SYSTEM":"UTC","SEMIMAJOR_AXIS":"6925.338","RCS_SIZE":"LARGE","NORAD_CAT_ID":"47980","REV_AT_EPOCH":"7376","MEAN_ELEMENT_THEORY":"SGP4","BSTAR":"0.00013214000000","OBJECT_ID":"2021-024D","TLE_LINE1":"1 47980U 21024D   22189.59280716  .00001687  00000-0  13214-3 0  9993","SITE":"AFETR","MEAN_MOTION":"15.06403366","APOAPSIS":"548.692","OBJECT_NAME":"STARLINK-2312","MEAN_MOTION_DOT":"0.00001687","GP_ID":"207694178","RA_OF_ASC_NODE":"147.6764","CLASSIFICATION_TYPE":"U","EPOCH":"2022-07-08T14:13:38.538624","PERIOD":"95.592","EPHEMERIS_TYPE":"0","FILE":"3510087","MEAN_ANOMALY":"297.5596","ELEMENT_SET_NO":"999","ECCENTRICITY":"0.00021500","MEAN_MOTION_DDOT":"0.0000000000000","INCLINATION":"53.0550","OBJECT_TYPE":"PAYLOAD","TLE_LINE2":"2 47980  53.0550 147.6764 0002150  62.5612 297.5596 15.06403366 73763","REF_FRAME":"TEME","DECAY_DATE":null,"PERIAPSIS":"545.714","CENTER_NAME":"EARTH"},{"MEAN_MOTION_DDOT":"0.0000000000000","ECCENTRICITY":"0.00013620","INCLINATION":"53.0533","OBJECT_TYPE":"PAYLOAD","TLE_LINE2":"2 47981  53.0533 233.0005 0001362  70.8299 289.2838 15.06401495 72565","REF_FRAME":"TEME","DECAY_DATE":null,"CENTER_NAME":"EARTH","PERIAPSIS":"546.266","CLASSIFICATION_TYPE":"U","RA_OF_ASC_NODE":"233.0005","GP_ID":"207665764","MEAN_MOTION_DOT":"0.00001832","EPOCH":"2022-07-08T11:46:58.785024","PERIOD":"95.592","EPHEMERIS_TYPE":"0","FILE":"3509949","ELEMENT_SET_NO":"999","MEAN_ANOMALY":"289.2838","MEAN_ELEMENT_THEORY":"SGP4","BSTAR":"0.00014184000000","OBJECT_ID":"2021-024E","TLE_LINE1":"1 47981U 21024E   22189.49095816  .00001832  00000-0  14184-3 0  9997","SITE":"AFETR","MEAN_MOTION":"15.06401495","APOAPSIS":"548.152","OBJECT_NAME":"STARLINK-2303","LAUNCH_DATE":"2021-03-24","ARG_OF_PERICENTER":"70.8299","COUNTRY_CODE":"US","SEMIMAJOR_AXIS":"6925.344","TIME_SYSTEM":"UTC","NORAD_CAT_ID":"47981","RCS_SIZE":"LARGE","REV_AT_EPOCH":"7256"},{"FILE":"3510016","ELEMENT_SET_NO":"999","MEAN_ANOMALY":"306.4228","EPOCH":"2022-07-08T19:16:49.319040","MEAN_MOTION_DOT":"0.00000424","GP_ID":"207671423","CLASSIFICATION_TYPE":"U","RA_OF_ASC_NODE":"161.5960","EPHEMERIS_TYPE":"0","PERIOD":"95.592","REF_FRAME":"TEME","PERIAPSIS":"545.449","CENTER_NAME":"EARTH","DECAY_DATE":null,"INCLINATION":"53.0542","ECCENTRICITY":"0.00025540","MEAN_MOTION_DDOT":"0.0000000000000","TLE_LINE2":"2 47982  53.0542 161.5960 0002554  53.6997 306.4228 15.06398486 73054","OBJECT_TYPE":"PAYLOAD","SEMIMAJOR_AXIS":"6925.353","TIME_SYSTEM":"UTC","REV_AT_EPOCH":"7305","NORAD_CAT_ID":"47982","RCS_SIZE":"LARGE","COUNTRY_CODE":"US","ARG_OF_PERICENTER":"53.6997","LAUNCH_DATE":"2021-03-24","APOAPSIS":"548.987","MEAN_MOTION":"15.06398486","OBJECT_NAME":"STARLINK-2317","BSTAR":"0.00004738200000","MEAN_ELEMENT_THEORY":"SGP4","SITE":"AFETR","OBJECT_ID":"2021-024F","TLE_LINE1":"1 47982U 21024F   22189.80334860  .00000424  00000-0  47382-4 0  9991"},{"MEAN_MOTION":"15.06405425","APOAPSIS":"548.306","OBJECT_NAME":"STARLINK-2308","MEAN_ELEMENT_THEORY":"SGP4","BSTAR":"0.00005627700000","TLE_LINE1":"1 47985U 21024J   22189.80843760  .00000557  00000-0  56277-4 0  9998","OBJECT_ID":"2021-024J","SITE":"AFETR","SEMIMAJOR_AXIS":"6925.332","TIME_SYSTEM":"UTC","NORAD_CAT_ID":"47985","RCS_SIZE":"LARGE","REV_AT_EPOCH":"7298","LAUNCH_DATE":"2021-03-24","ARG_OF_PERICENTER":"69.5390","COUNTRY_CODE":"US","REF_FRAME":"TEME","DECAY_DATE":null,"CENTER_NAME":"EARTH","PERIAPSIS":"546.087","MEAN_MOTION_DDOT":"0.0000000000000","ECCENTRICITY":"0.00016020","INCLINATION":"53.0530","OBJECT_TYPE":"PAYLOAD","TLE_LINE2":"2 47985  53.0530 166.7451 0001602  69.5390 290.5771 15.06405425 72981","FILE":"3510017","ELEMENT_SET_NO":"999","MEAN_ANOMALY":"290.5771","CLASSIFICATION_TYPE":"U","RA_OF_ASC_NODE":"166.7451","GP_ID":"207671446","MEAN_MOTION_DOT":"0.00000557","EPOCH":"2022-07-08T19:24:09.008640","PERIOD":"95.592","EPHEMERIS_TYPE":"0"},{"OBJECT_NAME":"STARLINK-2306","APOAPSIS":"309.808","MEAN_MOTION":"15.87621603","SITE":"AFETR","TLE_LINE1":"1 47988U 21024M   22189.91668981  .00068893  00000-0  25373-3 0  9992","OBJECT_ID":"2021-024M","BSTAR":"0.00025373000000","MEAN_ELEMENT_THEORY":"SGP4","REV_AT_EPOCH":"130","RCS_SIZE":"LARGE","NORAD_CAT_ID":"47988","SEMIMAJOR_AXIS":"6687.090","TIME_SYSTEM":"UTC","COUNTRY_CODE":"US","LAUNCH_DATE":"2021-03-24","ARG_OF_PERICENTER":"139.9900","CENTER_NAME":"EARTH","PERIAPSIS":"308.102","DECAY_DATE":null,"REF_FRAME":"TEME","TLE_LINE2":"2 47988  53.0314 124.3356 0001276 139.9900 273.6927 15.87621603  1304","OBJECT_TYPE":"PAYLOAD","INCLINATION":"53.0314","MEAN_MOTION_DDOT":"0.0000000000000","ECCENTRICITY":"0.00012760","ELEMENT_SET_NO":"999","MEAN_ANOMALY":"273.6927","FILE":"3510087","EPHEMERIS_TYPE":"0","PERIOD":"90.702","EPOCH":"2022-07-08T22:00:01.999584","RA_OF_ASC_NODE":"124.3356","CLASSIFICATION_TYPE":"U","MEAN_MOTION_DOT":"0.00068893","GP_ID":"207693678"},{"DECAY_DATE":null,"CENTER_NAME":"EARTH","PERIAPSIS":"546.154","REF_FRAME":"TEME","OBJECT_TYPE":"PAYLOAD","TLE_LINE2":"2 47989  53.0554 141.3605 0001511  85.9796 274.1366 15.06404324 73821","MEAN_MOTION_DDOT":"0.0000000000000","ECCENTRICITY":"0.00015110","INCLINATION":"53.0554","MEAN_ANOMALY":"274.1366","ELEMENT_SET_NO":"999","FILE":"3510087","PERIOD":"95.592","EPHEMERIS_TYPE":"0","RA_OF_ASC_NODE":"141.3605","CLASSIFICATION_TYPE":"U","GP_ID":"207693928","MEAN_MOTION_DOT":"0.00000612","EPOCH":"2022-07-08T20:39:05.191200","OBJECT_NAME":"STARLINK-2305","MEAN_MOTION":"15.06404324","APOAPSIS":"548.247","OBJECT_ID":"2021-024N","TLE_LINE1":"1 47989U 21024N   22189.86047675  .00000612  00000-0  59977-4 0  9991","SITE":"AFETR","MEAN_ELEMENT_THEORY":"SGP4","BSTAR":"0.00005997700000","RCS_SIZE":"LARGE","NORAD_CAT_ID":"47989","REV_AT_EPOCH":"7382","SEMIMAJOR_AXIS":"6925.335","TIME_SYSTEM":"UTC","LAUNCH_DATE":"2021-03-24","ARG_OF_PERICENTER":"85.9796","COUNTRY_CODE":"US"},{"ELEMENT_SET_NO":"999","MEAN_ANOMALY":"296.5515","FILE":"3510087","PERIOD":"95.592","EPHEMERIS_TYPE":"0","RA_OF_ASC_NODE":"141.2514","CLASSIFICATION_TYPE":"U","MEAN_MOTION_DOT":"-0.00000208","GP_ID":"207695180","EPOCH":"2022-07-08T21:05:37.963968","DECAY_DATE":null,"CENTER_NAME":"EARTH","PERIAPSIS":"545.497","REF_FRAME":"TEME","OBJECT_TYPE":"PAYLOAD","TLE_LINE2":"2 47990  53.0531 141.2514 0002487  63.5729 296.5515 15.06397993 73813","MEAN_MOTION_DDOT":"0.0000000000000","ECCENTRICITY":"0.00024870","INCLINATION":"53.0531","NORAD_CAT_ID":"47990","RCS_SIZE":"LARGE","REV_AT_EPOCH":"7381","SEMIMAJOR_AXIS":"6925.355","TIME_SYSTEM":"UTC","LAUNCH_DATE":"2021-03-24","ARG_OF_PERICENTER":"63.5729","COUNTRY_CODE":"US","OBJECT_NAME":"STARLINK-2307","MEAN_MOTION":"15.06397993","APOAPSIS":"548.942","OBJECT_ID":"2021-024P","TLE_LINE1":"1 47990U 21024P   22189.87891162 -.00000208  00000-0  49770-5 0  9995","SITE":"AFETR","MEAN_ELEMENT_THEORY":"SGP4","BSTAR":"0.00000497700000"},{"MEAN_MOTION":"15.06394531","APOAPSIS":"548.494","OBJECT_NAME":"STARLINK-2279","MEAN_ELEMENT_THEORY":"SGP4","BSTAR":"0.00000610870000","OBJECT_ID":"2021-024Q","TLE_LINE1":"1 47991U 21024Q   22189.62505265 -.00000191  00000-0  61087-5 0  9991","SITE":"AFETR","TIME_SYSTEM":"UTC","SEMIMAJOR_AXIS":"6925.365","NORAD_CAT_ID":"47991","RCS_SIZE":"LARGE","REV_AT_EPOCH":"7362","LAUNCH_DATE":"2021-03-24","ARG_OF_PERICENTER":"77.4869","COUNTRY_CODE":"US","REF_FRAME":"TEME","DECAY_DATE":null,"CENTER_NAME":"EARTH","PERIAPSIS":"545.966","MEAN_MOTION_DDOT":"0.0000000000000","ECCENTRICITY":"0.00018250","INCLINATION":"53.0553","OBJECT_TYPE":"PAYLOAD","TLE_LINE2":"2 47991  53.0553 157.4213 0001825  77.4869 282.6324 15.06394531 73625","FILE":"3510087","MEAN_ANOMALY":"282.6324","ELEMENT_SET_NO":"999","RA_OF_ASC_NODE":"157.4213","CLASSIFICATION_TYPE":"U","MEAN_MOTION_DOT":"-0.00000191","GP_ID":"207694930","EPOCH":"2022-07-08T15:00:04.548960","PERIOD":"95.592","EPHEMERIS_TYPE":"0"},{"SITE":"AFETR","TLE_LINE1":"1 47992U 21024R   22189.31404166  .00001659  00000-0  13023-3 0  9990","OBJECT_ID":"2021-024R","BSTAR":"0.00013023000000","MEAN_ELEMENT_THEORY":"SGP4","OBJECT_NAME":"STARLINK-2229","APOAPSIS":"548.445","MEAN_MOTION":"15.06403474","COUNTRY_CODE":"US","LAUNCH_DATE":"2021-03-24","ARG_OF_PERICENTER":"60.0126","REV_AT_EPOCH":"7360","NORAD_CAT_ID":"47992","RCS_SIZE":"LARGE","TIME_SYSTEM":"UTC","SEMIMAJOR_AXIS":"6925.338","TLE_LINE2":"2 47992  53.0545 153.8870 0001793  60.0126 300.1041 15.06403474 73601","OBJECT_TYPE":"PAYLOAD","INCLINATION":"53.0545","MEAN_MOTION_DDOT":"0.0000000000000","ECCENTRICITY":"0.00017930","CENTER_NAME":"EARTH","PERIAPSIS":"545.961","DECAY_DATE":null,"REF_FRAME":"TEME","EPHEMERIS_TYPE":"0","PERIOD":"95.592","EPOCH":"2022-07-08T07:32:13.199424","RA_OF_ASC_NODE":"153.8870","CLASSIFICATION_TYPE":"U","GP_ID":"207667000","MEAN_MOTION_DOT":"0.00001659","MEAN_ANOMALY":"300.1041","ELEMENT_SET_NO":"999","FILE":"3509949"},{"COUNTRY_CODE":"US","LAUNCH_DATE":"2021-03-24","ARG_OF_PERICENTER":"65.1190","REV_AT_EPOCH":"7315","NORAD_CAT_ID":"47993","RCS_SIZE":"LARGE","TIME_SYSTEM":"UTC","SEMIMAJOR_AXIS":"6925.388","SITE":"AFETR","OBJECT_ID":"2021-024S","TLE_LINE1":"1 47993U 21024S   22189.71950991  .00001260  00000-0  10354-3 0  9999","BSTAR":"0.00010354000000","MEAN_ELEMENT_THEORY":"SGP4","OBJECT_NAME":"STARLINK-2273","APOAPSIS":"548.451","MEAN_MOTION":"15.06387073","EPHEMERIS_TYPE":"0","PERIOD":"95.593","EPOCH":"2022-07-08T17:16:05.656224","RA_OF_ASC_NODE":"191.9927","CLASSIFICATION_TYPE":"U","MEAN_MOTION_DOT":"0.00001260","GP_ID":"207694429","ELEMENT_SET_NO":"999","MEAN_ANOMALY":"294.9979","FILE":"3510087","TLE_LINE2":"2 47993  53.0538 191.9927 0001729  65.1190 294.9979 15.06387073 73152","OBJECT_TYPE":"PAYLOAD","INCLINATION":"53.0538","MEAN_MOTION_DDOT":"0.0000000000000","ECCENTRICITY":"0.00017290","CENTER_NAME":"EARTH","PERIAPSIS":"546.056","DECAY_DATE":null,"REF_FRAME":"TEME"}];
